{"type": "FeatureCollection", "features": [{"type": "Feature", "properties": {"name": "Abanon", "psgc": "0105532001"}, "geometry": {"type": "Polygon", "coordinates": [[[120.31865, 15.87547], [120.33478, 15.87143], [120.33175, 15.86484], [120.31901, 15.86877], [120.31865, 15.87547]]]}}, {"type": "Feature", "properties": {"name": "Agdao", "psgc": "0105532002"}, "geometry": {"type": "Polygon", "coordinates": [[[120.32973, 15.91069], [120.33289, 15.89435], [120.32873, 15.89049], [120.32006, 15.90357], [120.32973, 15.91069]]]}}, {"type": "Feature", "properties": {"name": "Anando", "psgc": "0105532003"}, "geometry": {"type": "Polygon", "coordinates": [[[120.31861, 15.87204], [120.31474, 15.86217], [120.30695, 15.86591], [120.31127, 15.87019], [120.31861, 15.87204]]]}}, {"type": "Feature", "properties": {"name": "Ano", "psgc": "0105532004"}, "geometry": {"type": "Polygon", "coordinates": [[[120.38683, 15.96257], [120.38903, 15.94588], [120.37669, 15.94216], [120.3739, 15.95584], [120.38683, 15.96257]]]}}, {"type": "Feature", "properties": {"name": "Antipangol", "psgc": "0105532005"}, "geometry": {"type": "Polygon", "coordinates": [[[120.2838, 15.93941], [120.28574, 15.92865], [120.26872, 15.92169], [120.26827, 15.9344], [120.2838, 15.93941]]]}}, {"type": "Feature", "properties": {"name": "Aponit", "psgc": "0105532006"}, "geometry": {"type": "Polygon", "coordinates": [[[120.28701, 15.91295], [120.29576, 15.88931], [120.28382, 15.88754], [120.27482, 15.90507], [120.28701, 15.91295]]]}}, {"type": "Feature", "properties": {"name": "Bacnar", "psgc": "0105532007"}, "geometry": {"type": "Polygon", "coordinates": [[[120.34741, 15.89775], [120.35107, 15.8754], [120.34305, 15.88067], [120.3451, 15.87367], [120.33876, 15.87401], [120.33447, 15.89369], [120.34741, 15.89775]]]}}, {"type": "Feature", "properties": {"name": "Balaya", "psgc": "0105532008"}, "geometry": {"type": "Polygon", "coordinates": [[[120.29104, 15.93654], [120.29743, 15.92469], [120.28226, 15.91179], [120.27593, 15.92258], [120.29104, 15.93654]]]}}, {"type": "Feature", "properties": {"name": "Balayong", "psgc": "0105532009"}, "geometry": {"type": "Polygon", "coordinates": [[[120.34428, 15.95614], [120.34711, 15.9518], [120.34204, 15.93895], [120.33803, 15.94605], [120.34428, 15.95614]]]}}, {"type": "Feature", "properties": {"name": "Baldog", "psgc": "0105532010"}, "geometry": {"type": "Polygon", "coordinates": [[[120.32626, 15.91174], [120.31803, 15.90267], [120.31016, 15.92175], [120.31852, 15.92802], [120.32626, 15.91174]]]}}, {"type": "Feature", "properties": {"name": "Balite Sur", "psgc": "0105532011"}, "geometry": {"type": "Polygon", "coordinates": [[[120.35418, 15.89803], [120.36243, 15.8962], [120.36822, 15.87878], [120.35207, 15.87033], [120.35418, 15.89803]]]}}, {"type": "Feature", "properties": {"name": "Balococ", "psgc": "0105532012"}, "geometry": {"type": "Polygon", "coordinates": [[[120.29754, 15.92451], [120.30479, 15.9051], [120.29243, 15.90309], [120.28786, 15.91297], [120.29754, 15.92451]]]}}, {"type": "Feature", "properties": {"name": "Bani", "psgc": "0105532013"}, "geometry": {"type": "Polygon", "coordinates": [[[120.27061, 15.90532], [120.27654, 15.89971], [120.26802, 15.89653], [120.26311, 15.90089], [120.27061, 15.90532]]]}}, {"type": "Feature", "properties": {"name": "Bega", "psgc": "0105532014"}, "geometry": {"type": "Polygon", "coordinates": [[[120.36696, 15.93976], [120.37263, 15.9285], [120.3606, 15.92185], [120.35904, 15.92713], [120.36696, 15.93976]]]}}, {"type": "Feature", "properties": {"name": "Bocboc", "psgc": "0105532015"}, "geometry": {"type": "Polygon", "coordinates": [[[120.2631, 15.90084], [120.26659, 15.88856], [120.25626, 15.89344], [120.2631, 15.90084]]]}}, {"type": "Feature", "properties": {"name": "Bugallon-Posadas Street (Pob.)", "psgc": "0105532016"}, "geometry": {"type": "Polygon", "coordinates": [[[120.34473, 15.92887], [120.3482, 15.9263], [120.34645, 15.92533], [120.34473, 15.92887]]]}}, {"type": "Feature", "properties": {"name": "Bogaoan", "psgc": "0105532017"}, "geometry": {"type": "Polygon", "coordinates": [[[120.27592, 15.92215], [120.28229, 15.91131], [120.2702, 15.90532], [120.26809, 15.92095], [120.27592, 15.92215]]]}}, {"type": "Feature", "properties": {"name": "Bolingit", "psgc": "0105532018"}, "geometry": {"type": "Polygon", "coordinates": [[[120.34401, 15.9568], [120.35431, 15.95926], [120.34975, 15.94971], [120.34401, 15.9568]]]}}, {"type": "Feature", "properties": {"name": "Bolosan", "psgc": "0105532019"}, "geometry": {"type": "Polygon", "coordinates": [[[120.35398, 15.89805], [120.33542, 15.89762], [120.33714, 15.90735], [120.34514, 15.90455], [120.3476, 15.91061], [120.35398, 15.89805]]]}}, {"type": "Feature", "properties": {"name": "Bonifacio (Pob.)", "psgc": "0105532020"}, "geometry": {"type": "Polygon", "coordinates": [[[120.34359, 15.92549], [120.34639, 15.9251], [120.3438, 15.9237], [120.34359, 15.92549]]]}}, {"type": "Feature", "properties": {"name": "Buenglat", "psgc": "0105532021"}, "geometry": {"type": "Polygon", "coordinates": [[[120.30988, 15.92121], [120.31196, 15.90876], [120.3051, 15.90491], [120.302, 15.92], [120.30988, 15.92121]]]}}, {"type": "Feature", "properties": {"name": "Burgos Padlan (Pob.)", "psgc": "0105532022"}, "geometry": {"type": "Polygon", "coordinates": [[[120.34319, 15.926], [120.34645, 15.92533], [120.34606, 15.92514], [120.34319, 15.926]]]}}, {"type": "Feature", "properties": {"name": "Cacaritan", "psgc": "0105532023"}, "geometry": {"type": "Polygon", "coordinates": [[[120.33803, 15.94605], [120.33805, 15.93687], [120.32942, 15.94006], [120.33803, 15.94605]]]}}, {"type": "Feature", "properties": {"name": "Caingal", "psgc": "0105532024"}, "geometry": {"type": "Polygon", "coordinates": [[[120.34818, 15.91456], [120.34599, 15.90546], [120.34449, 15.90452], [120.3403, 15.90936], [120.34818, 15.91456]]]}}, {"type": "Feature", "properties": {"name": "Calobaoan", "psgc": "0105532025"}, "geometry": {"type": "Polygon", "coordinates": [[[120.34517, 15.88018], [120.35657, 15.85699], [120.33904, 15.83923], [120.33154, 15.846], [120.33175, 15.86484], [120.34517, 15.88018]]]}}, {"type": "Feature", "properties": {"name": "Calomboyan", "psgc": "0105532026"}, "geometry": {"type": "Polygon", "coordinates": [[[120.30403, 15.95836], [120.30783, 15.94391], [120.28615, 15.93604], [120.28076, 15.94484], [120.28558, 15.95229], [120.30403, 15.95836]]]}}, {"type": "Feature", "properties": {"name": "Capataan", "psgc": "0105532027"}, "geometry": {"type": "Polygon", "coordinates": [[[120.31429, 15.95823], [120.31528, 15.9465], [120.30783, 15.94391], [120.30374, 15.95221], [120.31429, 15.95823]]]}}, {"type": "Feature", "properties": {"name": "Caoayan-Kiling", "psgc": "0105532028"}, "geometry": {"type": "Polygon", "coordinates": [[[120.33175, 15.86484], [120.33159, 15.84856], [120.31291, 15.84], [120.31044, 15.86251], [120.33175, 15.86484]]]}}, {"type": "Feature", "properties": {"name": "Cobol", "psgc": "0105532029"}, "geometry": {"type": "Polygon", "coordinates": [[[120.39211, 15.91411], [120.39665, 15.90468], [120.3949, 15.89164], [120.38321, 15.90845], [120.39211, 15.91411]]]}}, {"type": "Feature", "properties": {"name": "Coliling", "psgc": "0105532030"}, "geometry": {"type": "Polygon", "coordinates": [[[120.38673, 15.93259], [120.38815, 15.91357], [120.36266, 15.91885], [120.3633, 15.92394], [120.38673, 15.93259]]]}}, {"type": "Feature", "properties": {"name": "Cruz", "psgc": "0105532031"}, "geometry": {"type": "Polygon", "coordinates": [[[120.34102, 15.96842], [120.35626, 15.96398], [120.35431, 15.95926], [120.34201, 15.95621], [120.34102, 15.96842]]]}}, {"type": "Feature", "properties": {"name": "Doyong", "psgc": "0105532032"}, "geometry": {"type": "Polygon", "coordinates": [[[120.35626, 15.96398], [120.36072, 15.95337], [120.35204, 15.95458], [120.35626, 15.96398]]]}}, {"type": "Feature", "properties": {"name": "Gamata", "psgc": "0105532035"}, "geometry": {"type": "Polygon", "coordinates": [[[120.30226, 15.93442], [120.31015, 15.92174], [120.29851, 15.91703], [120.29617, 15.93059], [120.30226, 15.93442]]]}}, {"type": "Feature", "properties": {"name": "Guelew", "psgc": "0105532036"}, "geometry": {"type": "Polygon", "coordinates": [[[120.30695, 15.86591], [120.31001, 15.85348], [120.3038, 15.84356], [120.29671, 15.84767], [120.30194, 15.85393], [120.29384, 15.86951], [120.30695, 15.86591]]]}}, {"type": "Feature", "properties": {"name": "Ilang", "psgc": "0105532037"}, "geometry": {"type": "Polygon", "coordinates": [[[120.35255, 15.92447], [120.35852, 15.91951], [120.35612, 15.91722], [120.35182, 15.9182], [120.35255, 15.92447]]]}}, {"type": "Feature", "properties": {"name": "Inerangan", "psgc": "0105532038"}, "geometry": {"type": "Polygon", "coordinates": [[[120.35971, 15.96183], [120.3672, 15.95924], [120.36162, 15.95512], [120.35971, 15.96183]]]}}, {"type": "Feature", "properties": {"name": "Isla", "psgc": "0105532039"}, "geometry": {"type": "Polygon", "coordinates": [[[120.30452, 15.90289], [120.30163, 15.88369], [120.29318, 15.90075], [120.30452, 15.90289]]]}}, {"type": "Feature", "properties": {"name": "Libas", "psgc": "0105532040"}, "geometry": {"type": "Polygon", "coordinates": [[[120.31877, 15.88496], [120.31844, 15.87265], [120.30695, 15.86591], [120.30163, 15.88369], [120.31877, 15.88496]]]}}, {"type": "Feature", "properties": {"name": "Lilimasan", "psgc": "0105532041"}, "geometry": {"type": "Polygon", "coordinates": [[[120.38874, 15.94538], [120.38826, 15.93144], [120.37263, 15.9285], [120.37165, 15.9397], [120.38874, 15.94538]]]}}, {"type": "Feature", "properties": {"name": "Longos", "psgc": "0105532043"}, "geometry": {"type": "Polygon", "coordinates": [[[120.35237, 15.92441], [120.35904, 15.92713], [120.36004, 15.92023], [120.35237, 15.92441]]]}}, {"type": "Feature", "properties": {"name": "Lucban (Pob.)", "psgc": "0105532044"}, "geometry": {"type": "Polygon", "coordinates": [[[120.34135, 15.93015], [120.34319, 15.926], [120.33925, 15.92755], [120.34135, 15.93015]]]}}, {"type": "Feature", "properties": {"name": "Mabalbalino", "psgc": "0105532045"}, "geometry": {"type": "Polygon", "coordinates": [[[120.26601, 15.92869], [120.25987, 15.90954], [120.24745, 15.90992], [120.24441, 15.92037], [120.26601, 15.92869]]]}}, {"type": "Feature", "properties": {"name": "Mabini (Pob.)", "psgc": "0105532046"}, "geometry": {"type": "Polygon", "coordinates": [[[120.35253, 15.92908], [120.35018, 15.92631], [120.34833, 15.92612], [120.35253, 15.92908]]]}}, {"type": "Feature", "properties": {"name": "Magtaking", "psgc": "0105532047"}, "geometry": {"type": "Polygon", "coordinates": [[[120.35593, 15.91715], [120.37283, 15.9177], [120.37205, 15.90627], [120.36101, 15.90366], [120.35593, 15.91715]]]}}, {"type": "Feature", "properties": {"name": "Malacañang", "psgc": "0105532048"}, "geometry": {"type": "Polygon", "coordinates": [[[120.33447, 15.89369], [120.33794, 15.87457], [120.31865, 15.87547], [120.31858, 15.88752], [120.33447, 15.89369]]]}}, {"type": "Feature", "properties": {"name": "Maliwara", "psgc": "0105532050"}, "geometry": {"type": "Polygon", "coordinates": [[[120.31803, 15.90267], [120.31514, 15.88745], [120.31244, 15.88693], [120.30895, 15.90383], [120.31803, 15.90267]]]}}, {"type": "Feature", "properties": {"name": "Mamarlao", "psgc": "0105532051"}, "geometry": {"type": "Polygon", "coordinates": [[[120.33805, 15.93687], [120.34135, 15.93015], [120.33223, 15.9245], [120.32671, 15.93472], [120.33805, 15.93687]]]}}, {"type": "Feature", "properties": {"name": "Manzon", "psgc": "0105532052"}, "geometry": {"type": "Polygon", "coordinates": [[[120.34362, 15.94803], [120.35396, 15.9437], [120.34262, 15.93995], [120.34362, 15.94803]]]}}, {"type": "Feature", "properties": {"name": "Matagdem", "psgc": "0105532053"}, "geometry": {"type": "Polygon", "coordinates": [[[120.35396, 15.9437], [120.36068, 15.95336], [120.36344, 15.94733], [120.35396, 15.9437]]]}}, {"type": "Feature", "properties": {"name": "Mestizo Norte", "psgc": "0105532054"}, "geometry": {"type": "Polygon", "coordinates": [[[120.33121, 15.91549], [120.34318, 15.91187], [120.3369, 15.90278], [120.33012, 15.90651], [120.33121, 15.91549]]]}}, {"type": "Feature", "properties": {"name": "Naguilayan", "psgc": "0105532055"}, "geometry": {"type": "Polygon", "coordinates": [[[120.33815, 15.96696], [120.34201, 15.95621], [120.33462, 15.95515], [120.33135, 15.96402], [120.33815, 15.96696]]]}}, {"type": "Feature", "properties": {"name": "Nilentap", "psgc": "0105532056"}, "geometry": {"type": "Polygon", "coordinates": [[[120.36763, 15.95858], [120.37464, 15.95284], [120.36344, 15.94733], [120.36069, 15.95342], [120.36763, 15.95858]]]}}, {"type": "Feature", "properties": {"name": "Padilla-Gomez", "psgc": "0105532057"}, "geometry": {"type": "Polygon", "coordinates": [[[120.34318, 15.91187], [120.34861, 15.91908], [120.35581, 15.91666], [120.34318, 15.91187]]]}}, {"type": "Feature", "properties": {"name": "Pagal", "psgc": "0105532058"}, "geometry": {"type": "Polygon", "coordinates": [[[120.34102, 15.95508], [120.33803, 15.94605], [120.32879, 15.94036], [120.32488, 15.95473], [120.34102, 15.95508]]]}}, {"type": "Feature", "properties": {"name": "Palaming", "psgc": "0105532060"}, "geometry": {"type": "Polygon", "coordinates": [[[120.32592, 15.95188], [120.3334, 15.93803], [120.32671, 15.93472], [120.31528, 15.9465], [120.32592, 15.95188]]]}}, {"type": "Feature", "properties": {"name": "Palaris (Pob.)", "psgc": "0105532061"}, "geometry": {"type": "Polygon", "coordinates": [[[120.34833, 15.92612], [120.34511, 15.92018], [120.34306, 15.91936], [120.3438, 15.9237], [120.34833, 15.92612]]]}}, {"type": "Feature", "properties": {"name": "Palospos", "psgc": "0105532062"}, "geometry": {"type": "Polygon", "coordinates": [[[120.36542, 15.87036], [120.36623, 15.86153], [120.35657, 15.85699], [120.35207, 15.87033], [120.36542, 15.87036]]]}}, {"type": "Feature", "properties": {"name": "Pangalangan", "psgc": "0105532063"}, "geometry": {"type": "Polygon", "coordinates": [[[120.31412, 15.9587], [120.32888, 15.95404], [120.31937, 15.95241], [120.31412, 15.9587]]]}}, {"type": "Feature", "properties": {"name": "Pangoloan", "psgc": "0105532064"}, "geometry": {"type": "Polygon", "coordinates": [[[120.32146, 15.93925], [120.32357, 15.93178], [120.31015, 15.92174], [120.30296, 15.93405], [120.29543, 15.93102], [120.30922, 15.93889], [120.32146, 15.93925]]]}}, {"type": "Feature", "properties": {"name": "Pangpang", "psgc": "0105532065"}, "geometry": {"type": "Polygon", "coordinates": [[[120.31528, 15.9465], [120.31967, 15.93796], [120.29324, 15.93384], [120.29455, 15.93793], [120.31528, 15.9465]]]}}, {"type": "Feature", "properties": {"name": "Paitan-Panoypoy", "psgc": "0105532066"}, "geometry": {"type": "Polygon", "coordinates": [[[120.35694, 15.91535], [120.36101, 15.90366], [120.36208, 15.89602], [120.3476, 15.91061], [120.35694, 15.91535]]]}}, {"type": "Feature", "properties": {"name": "Parayao", "psgc": "0105532067"}, "geometry": {"type": "Polygon", "coordinates": [[[120.32327, 15.96583], [120.31587, 15.96281], [120.30405, 15.95845], [120.30403, 15.96343], [120.32327, 15.96583]]]}}, {"type": "Feature", "properties": {"name": "Payapa", "psgc": "0105532069"}, "geometry": {"type": "Polygon", "coordinates": [[[120.38434, 15.91263], [120.38519, 15.90682], [120.37205, 15.90627], [120.37472, 15.91118], [120.38434, 15.91263]]]}}, {"type": "Feature", "properties": {"name": "Payar", "psgc": "0105532070"}, "geometry": {"type": "Polygon", "coordinates": [[[120.30855, 15.89745], [120.31874, 15.8873], [120.31445, 15.88254], [120.30742, 15.88418], [120.30855, 15.89745]]]}}, {"type": "Feature", "properties": {"name": "Perez Boulevard (Pob.)", "psgc": "0105532071"}, "geometry": {"type": "Polygon", "coordinates": [[[120.34833, 15.92612], [120.35476, 15.92742], [120.35057, 15.92175], [120.34833, 15.92612]]]}}, {"type": "Feature", "properties": {"name": "Polo", "psgc": "0105532072"}, "geometry": {"type": "Polygon", "coordinates": [[[120.31813, 15.90263], [120.32855, 15.88967], [120.31458, 15.88911], [120.31813, 15.90263]]]}}, {"type": "Feature", "properties": {"name": "Quezon Boulevard (Pob.)", "psgc": "0105532073"}, "geometry": {"type": "Polygon", "coordinates": [[[120.35517, 15.93591], [120.35904, 15.92713], [120.34937, 15.92724], [120.35517, 15.93591]]]}}, {"type": "Feature", "properties": {"name": "Quintong", "psgc": "0105532074"}, "geometry": {"type": "Polygon", "coordinates": [[[120.32327, 15.96583], [120.30719, 15.95405], [120.30405, 15.95806], [120.32327, 15.96583]]]}}, {"type": "Feature", "properties": {"name": "Rizal (Pob.)", "psgc": "0105532075"}, "geometry": {"type": "Polygon", "coordinates": [[[120.35384, 15.93808], [120.34899, 15.93429], [120.34835, 15.92634], [120.34204, 15.93895], [120.35384, 15.93808]]]}}, {"type": "Feature", "properties": {"name": "Roxas Boulevard (Pob.)", "psgc": "0105532076"}, "geometry": {"type": "Polygon", "coordinates": [[[120.33805, 15.93687], [120.34752, 15.93072], [120.34834, 15.92631], [120.33805, 15.93687]]]}}, {"type": "Feature", "properties": {"name": "Salinap", "psgc": "0105532077"}, "geometry": {"type": "Polygon", "coordinates": [[[120.28317, 15.89238], [120.27326, 15.88268], [120.26659, 15.88856], [120.27654, 15.89971], [120.28317, 15.89238]]]}}, {"type": "Feature", "properties": {"name": "San Juan", "psgc": "0105532078"}, "geometry": {"type": "Polygon", "coordinates": [[[120.32264, 15.93862], [120.33624, 15.9146], [120.32973, 15.91069], [120.31852, 15.92802], [120.32264, 15.93862]]]}}, {"type": "Feature", "properties": {"name": "San Pedro-Taloy", "psgc": "0105532079"}, "geometry": {"type": "Polygon", "coordinates": [[[120.34074, 15.92695], [120.34311, 15.91695], [120.33624, 15.9146], [120.33223, 15.9245], [120.34074, 15.92695]]]}}, {"type": "Feature", "properties": {"name": "Sapinit", "psgc": "0105532080"}, "geometry": {"type": "Polygon", "coordinates": [[[120.37283, 15.9177], [120.38194, 15.91312], [120.37472, 15.91118], [120.37283, 15.9177]]]}}, {"type": "Feature", "properties": {"name": "PNR Station Site", "psgc": "0105532081"}, "geometry": {"type": "Polygon", "coordinates": [[[120.35517, 15.93591], [120.35389, 15.93009], [120.35145, 15.92911], [120.34899, 15.93429], [120.35517, 15.93591]]]}}, {"type": "Feature", "properties": {"name": "Supo", "psgc": "0105532082"}, "geometry": {"type": "Polygon", "coordinates": [[[120.29542, 15.84656], [120.31291, 15.84], [120.31007, 15.83362], [120.29483, 15.83123], [120.29542, 15.84656]]]}}, {"type": "Feature", "properties": {"name": "Talang", "psgc": "0105532083"}, "geometry": {"type": "Polygon", "coordinates": [[[120.30603, 15.90496], [120.31736, 15.90452], [120.29318, 15.90075], [120.30603, 15.90496]]]}}, {"type": "Feature", "properties": {"name": "Tamayo", "psgc": "0105532084"}, "geometry": {"type": "Polygon", "coordinates": [[[120.29576, 15.88931], [120.30273, 15.87122], [120.29384, 15.86951], [120.28018, 15.87048], [120.28529, 15.88156], [120.27326, 15.88268], [120.29576, 15.88931]]]}}, {"type": "Feature", "properties": {"name": "Tandoc", "psgc": "0105532085"}, "geometry": {"type": "Polygon", "coordinates": [[[120.32204, 15.96952], [120.33719, 15.96961], [120.33004, 15.95356], [120.32204, 15.96952]]]}}, {"type": "Feature", "properties": {"name": "Tarece", "psgc": "0105532086"}, "geometry": {"type": "Polygon", "coordinates": [[[120.37399, 15.94758], [120.37669, 15.94216], [120.36068, 15.92993], [120.35181, 15.94205], [120.37399, 15.94758]]]}}, {"type": "Feature", "properties": {"name": "Tarectec", "psgc": "0105532087"}, "geometry": {"type": "Polygon", "coordinates": [[[120.38819, 15.90583], [120.38936, 15.8951], [120.39291, 15.89147], [120.37729, 15.90082], [120.38819, 15.90583]]]}}, {"type": "Feature", "properties": {"name": "Tayambani", "psgc": "0105532088"}, "geometry": {"type": "Polygon", "coordinates": [[[120.30895, 15.90383], [120.3072, 15.89409], [120.30452, 15.90289], [120.30895, 15.90383]]]}}, {"type": "Feature", "properties": {"name": "Tebag", "psgc": "0105532089"}, "geometry": {"type": "Polygon", "coordinates": [[[120.33095, 15.9051], [120.3396, 15.90242], [120.33955, 15.89676], [120.33289, 15.89435], [120.33095, 15.9051]]]}}, {"type": "Feature", "properties": {"name": "Turac", "psgc": "0105532090"}, "geometry": {"type": "Polygon", "coordinates": [[[120.37205, 15.90627], [120.38379, 15.89322], [120.36719, 15.88261], [120.36101, 15.90366], [120.37205, 15.90627]]]}}, {"type": "Feature", "properties": {"name": "M. Soriano", "psgc": "0105532091"}, "geometry": {"type": "Polygon", "coordinates": [[[120.34584, 15.92215], [120.35212, 15.92006], [120.35182, 15.9182], [120.34584, 15.92215]]]}}, {"type": "Feature", "properties": {"name": "Tandang Sora", "psgc": "0105532092"}, "geometry": {"type": "Polygon", "coordinates": [[[120.34879, 15.93109], [120.35145, 15.92911], [120.34914, 15.92786], [120.34879, 15.93109]]]}}]}